IRIDIUM 150             
1 43257U 18030J   25295.51656653  .00000403  00000+0  13697-3 0  9998
2 43257  86.4011  29.8098 0001966  92.3260 267.8161 14.34215488396091
IRIDIUM 143             
1 43258U 18030K   25295.49753904  .00000300  00000+0  99891-4 0  9990
2 43258  86.4014  29.9010 0001726  91.8588 268.2805 14.34215250396021
IRIDIUM 161             
1 43478U 18047C   25295.22554395  .00000568  00000+0  16293-3 0  9996
2 43478  86.4556 187.8811 0002320  83.3459 276.8006 14.43287141390810
IRIDIUM 152             
1 43479U 18047D   25295.26094727  .00000313  00000+0  10480-3 0  9999
2 43479  86.4030 187.7270 0002241  83.7461 276.3990 14.34220951388387
IRIDIUM 147             
1 43480U 18047E   25295.19752588  .00000172  00000+0  54437-4 0  9993
2 43480  86.4030 187.7549 0002111  86.2491 273.8947 14.34216277388374
IRIDIUM 110             
1 43481U 18047F   25295.20386849  .00000251  00000+0  82734-4 0  9998
2 43481  86.4029 187.8372 0002437  87.5656 272.5819 14.34217413388362
IRIDIUM 162             
1 43482U 18047G   25295.14992055  .00000617  00000+0  17757-3 0  9992
2 43482  86.4555 187.8067 0002468  79.4338 280.7141 14.43283317390794
IRIDIUM 160             
1 43569U 18061A   25295.14970502  .00000200  00000+0  64341-4 0  9997
2 43569  86.4000 156.3018 0002254  91.0400 269.1054 14.34216708379257
